{
"type": "FeatureCollection",
"name": "cobertura",
"crs": { "type": "name", "properties": { "name": "urn:ogc:def:crs:OGC:1.3:CRS84" } },
"features": [
{ "type": "Feature", "properties": { "Name": "Saraguro", "description": "Cobertura", "tessellate": 1 }, "geometry": { "type": "Polygon", "coordinates": [ [ [ -79.227724856863986, -3.609741553767424 ], [ -79.227741344983897, -3.610978162760646 ], [ -79.228268964820998, -3.611868521235766 ], [ -79.23072569468755, -3.61430876298239 ], [ -79.231929327440952, -3.614044953063836 ], [ -79.232869150275803, -3.614424179821758 ], [ -79.233594627551824, -3.614852870939408 ], [ -79.23367706815138, -3.614143881783294 ], [ -79.234682843465862, -3.61300620150953 ], [ -79.23519397518308, -3.612346676713145 ], [ -79.235721595020181, -3.611868521235766 ], [ -79.236331655456837, -3.612297212353416 ], [ -79.23682629905413, -3.612791855950705 ], [ -79.237782342202493, -3.613408861402921 ], [ -79.239257994421138, -3.614050051664971 ], [ -79.239968529706005, -3.615878436751363 ], [ -79.239645888340362, -3.617026612162456 ], [ -79.240818034075744, -3.618102859087801 ], [ -79.241860603994695, -3.618010028948716 ], [ -79.242737309641271, -3.617310894765986 ], [ -79.243812273971557, -3.616905211847463 ], [ -79.244443666891428, -3.615028002860294 ], [ -79.245931093334292, -3.615088144916147 ], [ -79.246884657196915, -3.614266756959451 ], [ -79.248109056679326, -3.612890684650059 ], [ -79.24872164255487, -3.612805892470127 ], [ -79.249967780529232, -3.611128751336373 ], [ -79.250756848221073, -3.611431024792576 ], [ -79.251142255115255, -3.612733459749094 ], [ -79.250227603795736, -3.614214841445181 ], [ -79.247664296765123, -3.616035827745772 ], [ -79.247315867360768, -3.616278769990122 ], [ -79.246771019426248, -3.617832606339735 ], [ -79.247378695796272, -3.618496745439435 ], [ -79.248104173072292, -3.61913978211591 ], [ -79.24899453154741, -3.618579186038983 ], [ -79.249637568223889, -3.61872757911817 ], [ -79.250016794981818, -3.619073829636271 ], [ -79.250940129696758, -3.619189246475639 ], [ -79.251039058416211, -3.619700378192837 ], [ -79.250973105936566, -3.620178533670217 ], [ -79.251978881251063, -3.62090401094624 ], [ -79.253182514004479, -3.620500052008454 ], [ -79.253231978364198, -3.619255198955277 ], [ -79.253907991280485, -3.618414304839887 ], [ -79.255045671554257, -3.618331864240338 ], [ -79.255276505232985, -3.619551985113651 ], [ -79.254608736376667, -3.620755617867053 ], [ -79.252852751606298, -3.621192553044658 ], [ -79.253924479400396, -3.621992226860276 ], [ -79.253809062561032, -3.622816632855757 ], [ -79.254353170518044, -3.623146395253949 ], [ -79.254600492316683, -3.623772943810515 ], [ -79.2544356111176, -3.62441598048699 ], [ -79.253297930843829, -3.624317051767532 ], [ -79.251896440651507, -3.623327764572955 ], [ -79.25122042773522, -3.622569311057112 ], [ -79.250181676180915, -3.622701216016389 ], [ -79.248351494870946, -3.622849609095576 ], [ -79.247213814597174, -3.623047466534492 ], [ -79.245746371925222, -3.623459669532232 ], [ -79.245470836336139, -3.622602712218413 ], [ -79.243597894749087, -3.623612020965392 ], [ -79.242633193231512, -3.624621849355855 ], [ -79.242374637723003, -3.627221500623584 ], [ -79.244427081783655, -3.62529026514314 ], [ -79.245270053825934, -3.625892995311268 ], [ -79.245291428819428, -3.627262117496123 ], [ -79.247194146850617, -3.631763941518874 ], [ -79.247085545943662, -3.633360319839247 ], [ -79.24656598488825, -3.633412918127218 ], [ -79.246149268660659, -3.632181848332826 ], [ -79.245432172220802, -3.631773488249717 ], [ -79.244710948520705, -3.630842354679688 ], [ -79.244400947070318, -3.629840605960193 ], [ -79.243538672041495, -3.629245228315329 ], [ -79.24252136987964, -3.630168008914373 ], [ -79.241772471428476, -3.630218613379912 ], [ -79.241640885036276, -3.632001438142615 ], [ -79.241565126681692, -3.632407777560624 ], [ -79.241260677229235, -3.633483452573345 ], [ -79.240880228860107, -3.636164888453704 ], [ -79.240333078472943, -3.636874641988922 ], [ -79.239631136306897, -3.638254106888808 ], [ -79.238973416476199, -3.639472676415186 ], [ -79.238489939465893, -3.638849020603968 ], [ -79.237916242128179, -3.63835965128141 ], [ -79.237082717832237, -3.637672632814325 ], [ -79.236732244417212, -3.63725047246512 ], [ -79.23673158456188, -3.635719583231722 ], [ -79.23718321158519, -3.634163471458809 ], [ -79.237976513172683, -3.633882227141059 ], [ -79.237654334293353, -3.633321814330518 ], [ -79.237529243464621, -3.632784207868153 ], [ -79.237336229567035, -3.632081159631281 ], [ -79.237156876086431, -3.631515012458945 ], [ -79.236683300517058, -3.631619318711485 ], [ -79.236072793008674, -3.630397944727362 ], [ -79.23654236564829, -3.629828856115545 ], [ -79.236458262071253, -3.629398219276194 ], [ -79.235932941587109, -3.629632488452178 ], [ -79.235443581800666, -3.629832954673788 ], [ -79.23498337221541, -3.629495453509763 ], [ -79.23488770225822, -3.628939290242715 ], [ -79.234825870651576, -3.628696312455538 ], [ -79.234665890234041, -3.628404399305944 ], [ -79.234538107889676, -3.628198295626683 ], [ -79.234141445556602, -3.628407741960735 ], [ -79.233500546178988, -3.628920246417122 ], [ -79.232344665212494, -3.629508954910477 ], [ -79.231491938704622, -3.629922741352229 ], [ -79.2301342556636, -3.629134571656628 ], [ -79.230241914915013, -3.628057072547569 ], [ -79.230230037811026, -3.626453206723511 ], [ -79.229957192805912, -3.625213328045699 ], [ -79.230047057492996, -3.624744548262679 ], [ -79.23019268581487, -3.624000011150908 ], [ -79.230521458800183, -3.623228880219679 ], [ -79.230637762880903, -3.622886757164138 ], [ -79.23056038381776, -3.622331073026492 ], [ -79.231098046985821, -3.622160785298452 ], [ -79.23111942959666, -3.62192932749981 ], [ -79.23120288725508, -3.621655021962143 ], [ -79.232194349668944, -3.621208212958036 ], [ -79.232860389997015, -3.619920132654898 ], [ -79.233678152638731, -3.619772655785314 ], [ -79.234751520091265, -3.620450665893455 ], [ -79.2363882192207, -3.620641779466963 ], [ -79.238355269825135, -3.61868352980363 ], [ -79.237919348037934, -3.617994595579105 ], [ -79.237201642737986, -3.616223314972864 ], [ -79.236278688939421, -3.619576900652441 ], [ -79.235597060239002, -3.61976122199727 ], [ -79.234988086958523, -3.617943720381596 ], [ -79.234183924065945, -3.617301070619236 ], [ -79.232126264907905, -3.618282455455507 ], [ -79.231616053162682, -3.618826507837628 ], [ -79.230132122370804, -3.619123293996001 ], [ -79.229851824332329, -3.617936149362508 ], [ -79.229538550054059, -3.614935311538956 ], [ -79.23072569468755, -3.61430876298239 ], [ -79.228334917300643, -3.611967449955223 ], [ -79.228730632178468, -3.612923760909982 ], [ -79.228532774739548, -3.614671501620402 ], [ -79.228137059861723, -3.61566078881498 ], [ -79.227939202422803, -3.617144719606846 ], [ -79.227873249943173, -3.618925436557086 ], [ -79.226850986508765, -3.619815795032205 ], [ -79.225400031956724, -3.61922222271546 ], [ -79.224938364599254, -3.61829888800052 ], [ -79.224971340839076, -3.616847933448474 ], [ -79.225070269558529, -3.615858646253896 ], [ -79.224476697241784, -3.615199121457511 ], [ -79.22319062388884, -3.614770430339861 ], [ -79.222003479255335, -3.614110905543475 ], [ -79.221904550535882, -3.613352452027633 ], [ -79.222959790210098, -3.613121618348898 ], [ -79.225037293318707, -3.613121618348898 ], [ -79.225960628033647, -3.612692927231248 ], [ -79.225762770594741, -3.611505782597755 ], [ -79.225268126997449, -3.611110067719924 ], [ -79.224542649721428, -3.611027627120376 ], [ -79.224064494244047, -3.610780305321731 ], [ -79.223619315006488, -3.610714352842093 ], [ -79.223371993207834, -3.610104292405437 ], [ -79.223273064488382, -3.609444767609052 ], [ -79.223668779366207, -3.609230422050226 ], [ -79.223998541764402, -3.608686314093208 ], [ -79.225482472556266, -3.608059765536642 ], [ -79.226323366671664, -3.608059765536642 ], [ -79.226818010268957, -3.608521432894112 ], [ -79.227461046945422, -3.609180957690497 ], [ -79.227724856863986, -3.609741553767424 ] ] ] } },
{ "type": "Feature", "properties": { "Name": "Urdaneta", "description": "Cobertura", "tessellate": 1 }, "geometry": { "type": "Polygon", "coordinates": [ [ [ -79.207712401323718, -3.617925844287564 ], [ -79.208437878599739, -3.619211917640515 ], [ -79.207547520124621, -3.620497990993465 ], [ -79.206030613092935, -3.621421325708404 ], [ -79.205502993255834, -3.623103113939186 ], [ -79.203656323825953, -3.624059424893945 ], [ -79.201380963278424, -3.623729662495752 ], [ -79.198775840332701, -3.62471894969033 ], [ -79.195610121310054, -3.625444426966354 ], [ -79.194060238038546, -3.625411450726535 ], [ -79.193285296402792, -3.625460915086264 ], [ -79.190564756617704, -3.637843493138393 ], [ -79.19260928348649, -3.637810516898574 ], [ -79.193961309319079, -3.637612659459658 ], [ -79.195280358911845, -3.636590396025261 ], [ -79.195082501472939, -3.634875631554661 ], [ -79.195478216350764, -3.633490629482252 ], [ -79.196566432264802, -3.632204556129301 ], [ -79.197720600658471, -3.632468366047855 ], [ -79.198083339296488, -3.634578845396288 ], [ -79.199402388889254, -3.635765990029781 ], [ -79.201413939518233, -3.636359562346527 ], [ -79.20184263063588, -3.637942421857851 ], [ -79.201446915758055, -3.639426352649717 ], [ -79.20045762856347, -3.642130404314896 ], [ -79.200358699844017, -3.644108978704052 ], [ -79.196764289703736, -3.644438741102244 ], [ -79.19386238059964, -3.643911121265136 ], [ -79.192477378527215, -3.642493142952908 ], [ -79.190234994219509, -3.640943259681403 ], [ -79.189476540703666, -3.63929444769044 ], [ -79.190531780377881, -3.637876469378213 ], [ -79.193252320162955, -3.625427938846444 ], [ -79.192757676565677, -3.624620020970872 ], [ -79.195544168830409, -3.623762638735572 ], [ -79.196962147142642, -3.622872280260452 ], [ -79.198709887853056, -3.620695848432381 ], [ -79.199831080006916, -3.621091563310213 ], [ -79.201743701916428, -3.621223468269489 ], [ -79.203920133744504, -3.620399062274008 ], [ -79.205997636853112, -3.619508703798888 ], [ -79.207745377563541, -3.617859891807926 ], [ -79.208734664758111, -3.616771675893891 ], [ -79.207811330043171, -3.616310008536421 ], [ -79.205371088296545, -3.616145127337325 ], [ -79.202996799029563, -3.615683459979855 ], [ -79.199995961206014, -3.616046198617867 ], [ -79.198643935373426, -3.615254768862205 ], [ -79.196071788667524, -3.614496315346362 ], [ -79.194455952916385, -3.615287745102024 ], [ -79.192213568608665, -3.617299295730998 ], [ -79.190663685337171, -3.618882155242323 ], [ -79.188487253509095, -3.620629895952743 ], [ -79.186145940481921, -3.621981921785332 ], [ -79.184068437373313, -3.62293823274009 ], [ -79.182320696662899, -3.623564781296656 ], [ -79.181924981785059, -3.622542517862259 ], [ -79.182881292739822, -3.621388349468586 ], [ -79.183375936337114, -3.620201204835093 ], [ -79.182089862984157, -3.619145965160877 ], [ -79.179979383635711, -3.61983846619708 ], [ -79.178198666685518, -3.619047036441418 ], [ -79.179187953880088, -3.618024773007022 ], [ -79.180902718350694, -3.616936557092986 ], [ -79.183046173938934, -3.615683459979854 ], [ -79.182782364020383, -3.615122863902927 ], [ -79.181067599549777, -3.615980246138228 ], [ -79.178660334042974, -3.617233343251359 ], [ -79.177934856766953, -3.617068462052263 ], [ -79.176681759653817, -3.616837628373528 ], [ -79.177044498291835, -3.615914293658589 ], [ -79.180045336115384, -3.614298457907446 ], [ -79.181892005545265, -3.612517740957206 ], [ -79.18136438570815, -3.611495477522809 ], [ -79.179649621237559, -3.610341309129136 ], [ -79.176319021015814, -3.611495477522809 ], [ -79.173384135671895, -3.612056073599737 ], [ -79.172856515834795, -3.611000833925521 ], [ -79.174274494147014, -3.609483926893835 ], [ -79.175230805101776, -3.607736186183415 ], [ -79.178264619165148, -3.608065948581607 ], [ -79.180078312355207, -3.607999996101969 ], [ -79.183870579934421, -3.606878803948114 ], [ -79.186937370237615, -3.605988445472994 ], [ -79.188817015907304, -3.60532892067661 ], [ -79.189410588224078, -3.604603443400586 ], [ -79.188915944626785, -3.601965344215046 ], [ -79.189410588224078, -3.60087712830101 ], [ -79.190630709097391, -3.600283555984264 ], [ -79.191949758690157, -3.600052722305529 ], [ -79.193994285558958, -3.598733672712759 ], [ -79.195230894552111, -3.598783137072489 ], [ -79.196549944144877, -3.599624031187879 ], [ -79.196863218423232, -3.60044843718336 ], [ -79.197456790739977, -3.601239866939022 ], [ -79.200259771124607, -3.602394035332696 ], [ -79.203639835706085, -3.602509452172063 ], [ -79.205032612419913, -3.602884937462485 ], [ -79.206876828565896, -3.602895278326861 ], [ -79.207780544333261, -3.602215240561759 ], [ -79.208314663311697, -3.601395960295926 ], [ -79.208656872686547, -3.600745180891471 ], [ -79.20835397374799, -3.599136578741341 ], [ -79.20738285586468, -3.59883957576324 ], [ -79.206247788259986, -3.598699997411644 ], [ -79.203777125806425, -3.598902443986463 ], [ -79.202986966002683, -3.598637228697677 ], [ -79.201588830330707, -3.598809352674706 ], [ -79.200904459801833, -3.599485596943384 ], [ -79.199927466781446, -3.600266751743864 ], [ -79.198689453399822, -3.599747411388965 ], [ -79.198561348824867, -3.598934163241504 ], [ -79.198704342217226, -3.598254185145297 ], [ -79.199297721518576, -3.597909810423073 ], [ -79.199931860339191, -3.597612206846459 ], [ -79.200738632540649, -3.597346529131647 ], [ -79.201175627273514, -3.597433523298413 ], [ -79.202177078832477, -3.597085076229388 ], [ -79.203335934619744, -3.597006554598417 ], [ -79.204082384054601, -3.596668321603588 ], [ -79.205956419331869, -3.596356105063362 ], [ -79.207252973353491, -3.596960689159774 ], [ -79.208569730283202, -3.59767780939212 ], [ -79.209640846435917, -3.596106218738743 ], [ -79.210700528806143, -3.595253565634248 ], [ -79.21183176685301, -3.595405557170183 ], [ -79.212471631407368, -3.595886882637553 ], [ -79.213700662133746, -3.5962952802214 ], [ -79.21431123194229, -3.594871591218057 ], [ -79.215066085080593, -3.592388288392839 ], [ -79.215992221663512, -3.591909878475108 ], [ -79.217062799871783, -3.591387590646256 ], [ -79.217676574021738, -3.591126104665705 ], [ -79.218620313654384, -3.591873903997296 ], [ -79.219290563607885, -3.592449282392814 ], [ -79.219160423031809, -3.593964378442197 ], [ -79.218960733562824, -3.595216111778794 ], [ -79.219932333801538, -3.595919011465894 ], [ -79.220279687291722, -3.597457361766782 ], [ -79.220233780307623, -3.599065764032404 ], [ -79.219666850591423, -3.600229533029569 ], [ -79.218851706166078, -3.600069285426903 ], [ -79.217281516728775, -3.599799009665119 ], [ -79.215743012472132, -3.599464263440338 ], [ -79.213479758388459, -3.599265730306819 ], [ -79.212301936488203, -3.598997082916806 ], [ -79.211624502747242, -3.598123358405135 ], [ -79.210762271252918, -3.597185805775602 ], [ -79.210108765331654, -3.599354562508293 ], [ -79.211679698976837, -3.601490444191717 ], [ -79.214468228305236, -3.601486972670498 ], [ -79.217735342993663, -3.60188977723463 ], [ -79.21772290557108, -3.603870175406214 ], [ -79.217331543292758, -3.605541565466451 ], [ -79.214802292884855, -3.609516903133655 ], [ -79.214439554246852, -3.611297620083894 ], [ -79.217011700952753, -3.61103381016534 ], [ -79.217209558391659, -3.611891192400641 ], [ -79.21559372264052, -3.612913455835038 ], [ -79.21447253048666, -3.613572980631423 ], [ -79.214010863129189, -3.614430362866723 ], [ -79.213648124491186, -3.615089887663108 ], [ -79.213252409613347, -3.616639770934613 ], [ -79.213087528414249, -3.617892868047745 ], [ -79.212757766016068, -3.618882155242322 ], [ -79.211768478821483, -3.618024773007022 ], [ -79.210218595549975, -3.617596081889371 ], [ -79.208767640997934, -3.616672747174432 ], [ -79.207712401323718, -3.617925844287564 ] ] ] } },
{ "type": "Feature", "properties": { "Name": "Cumbe", "description": "Cobertura", "tessellate": 1 }, "geometry": { "type": "Polygon", "coordinates": [ [ [ -79.219933166170108, -3.579561293031118 ], [ -79.220011747352487, -3.577916311238898 ], [ -79.220615010468237, -3.576885348437349 ], [ -79.220583562492507, -3.575531586723413 ], [ -79.219368794003273, -3.573414502766724 ], [ -79.220319353802481, -3.572732419554191 ], [ -79.222787201034137, -3.572404785125971 ], [ -79.224659641929563, -3.566616922807086 ], [ -79.223498050696065, -3.567170118825926 ], [ -79.222543495449699, -3.566709062380113 ], [ -79.221369608967322, -3.565521746291505 ], [ -79.221054822507568, -3.5640290659131 ], [ -79.220986170338904, -3.562470171753217 ], [ -79.221837751368341, -3.560318690156812 ], [ -79.222930079694763, -3.558880619955477 ], [ -79.223771830115766, -3.5576947422577 ], [ -79.224266473713044, -3.557299027379869 ], [ -79.225057903468709, -3.557991528416073 ], [ -79.225066147528878, -3.559269357709074 ], [ -79.224498783816742, -3.561151642079807 ], [ -79.224952897396605, -3.561689523851441 ], [ -79.225948004772135, -3.562481539239717 ], [ -79.226823998733735, -3.563685185075687 ], [ -79.226781467363665, -3.56569212207306 ], [ -79.237331964210313, -3.568303326980246 ], [ -79.241676336756299, -3.566025976420438 ], [ -79.244355106913744, -3.563859197158707 ], [ -79.246328458637947, -3.565126660702557 ], [ -79.246520206867302, -3.566927184666171 ], [ -79.24583494487824, -3.568563248574681 ], [ -79.243802413203724, -3.571678675029542 ], [ -79.242762367269194, -3.576606738650767 ], [ -79.24110025759461, -3.575975340788895 ], [ -79.23787350939719, -3.573116230746599 ], [ -79.237914948203567, -3.571425025704271 ], [ -79.238430079006221, -3.569945968336648 ], [ -79.238775965912481, -3.568847384589395 ], [ -79.237331714461959, -3.568302307240489 ], [ -79.226782165981319, -3.565690118044436 ], [ -79.225833858872619, -3.566591878597632 ], [ -79.224659641929563, -3.566616922722556 ], [ -79.222787201710389, -3.572404785125972 ], [ -79.224289776312958, -3.572358163837242 ], [ -79.225974719310756, -3.573121003834738 ], [ -79.226359968242051, -3.574621619848887 ], [ -79.225848904022754, -3.576157391995271 ], [ -79.226989668948747, -3.577822234179583 ], [ -79.227145411078624, -3.579373048280222 ], [ -79.225456553239567, -3.57982196313915 ], [ -79.224152274362126, -3.579816420298825 ], [ -79.222937542775725, -3.580817344172068 ], [ -79.222005801701528, -3.582175034929616 ], [ -79.221068983312634, -3.584352386572576 ], [ -79.220176816554869, -3.584339939569953 ], [ -79.219769184820194, -3.583821085522925 ], [ -79.218933857967329, -3.582583883185172 ], [ -79.219075826068618, -3.581130151660114 ], [ -79.219317310865591, -3.580125962448872 ], [ -79.219933166170108, -3.579561293031118 ] ] ] } },
{ "type": "Feature", "properties": { "Name": "Tenta", "description": "Cobertura", "tessellate": 1 }, "geometry": { "type": "Polygon", "coordinates": [ [ [ -79.294736698206805, -3.612105537959467 ], [ -79.294139003859996, -3.613204058948444 ], [ -79.293842217701624, -3.614671501620401 ], [ -79.293623750112815, -3.615708192159719 ], [ -79.293211547115078, -3.616557330335064 ], [ -79.292543778258732, -3.616582062514929 ], [ -79.291678151963481, -3.61651611003529 ], [ -79.291430830164842, -3.615972002078273 ], [ -79.291579223244028, -3.615394917881436 ], [ -79.291422586104972, -3.614661196545459 ], [ -79.291109311826688, -3.61373786183052 ], [ -79.290614668229395, -3.612303395398383 ], [ -79.29094443062759, -3.61109976264498 ], [ -79.291076335586851, -3.60931904569474 ], [ -79.290581691989559, -3.607208566346308 ], [ -79.28942752359589, -3.603812013644925 ], [ -79.289757285994085, -3.602427011572516 ], [ -79.288240378962399, -3.602064272934505 ], [ -79.286327757052874, -3.602394035332697 ], [ -79.284283230184087, -3.601009033260289 ], [ -79.282568465713481, -3.599294268789687 ], [ -79.282700370672757, -3.596788074563424 ], [ -79.285107636179561, -3.595831763608666 ], [ -79.286327757052902, -3.594644618975174 ], [ -79.288108474003138, -3.593655331780596 ], [ -79.289658357274647, -3.594479737776077 ], [ -79.291241216785949, -3.594182951617703 ], [ -79.29269217133799, -3.593985094178788 ], [ -79.293747411012205, -3.594578666495535 ], [ -79.294324495209054, -3.595155750692371 ], [ -79.295330270523536, -3.59612854976704 ], [ -79.295231341804083, -3.597200277561165 ], [ -79.293945268451125, -3.59784331423764 ], [ -79.293508333273721, -3.599310756909603 ], [ -79.292725147577812, -3.602295106613239 ], [ -79.294901579405874, -3.604438562201491 ], [ -79.295462175482811, -3.606054397952634 ], [ -79.295923842840281, -3.607010708907393 ], [ -79.295330270523536, -3.60799999610197 ], [ -79.294769674446613, -3.609483926893837 ], [ -79.294753186326716, -3.610819464606517 ], [ -79.294604793247515, -3.611314108203806 ], [ -79.294736698206805, -3.612105537959467 ] ] ] } }
]
}


